CSS (TIANHE)            
1 48274U 21035A   24140.54110396  .00056469  00000+0  56332-3 0  9997
2 48274  41.4681 258.0372 0002849  11.5592 348.5313 15.64756805174617
